{
  "links" : {
    "next" : "https://api.nasa.gov/neo/rest/v1/feed?start_date=2000-04-16&end_date=2000-04-16&detailed=true&api_key=t0TVs3DtDT2H8Oy2Zy8m2eVrNsAVKAexjcZXUckd",
    "prev" : "https://api.nasa.gov/neo/rest/v1/feed?start_date=2000-04-14&end_date=2000-04-14&detailed=true&api_key=t0TVs3DtDT2H8Oy2Zy8m2eVrNsAVKAexjcZXUckd",
    "self" : "https://api.nasa.gov/neo/rest/v1/feed?start_date=2000-04-15&end_date=2000-04-15&detailed=true&api_key=t0TVs3DtDT2H8Oy2Zy8m2eVrNsAVKAexjcZXUckd"
  },
  "element_count" : 6,
  "near_earth_objects" : {
    "2000-04-15" : [ {
      "links" : {
        "self" : "https://api.nasa.gov/neo/rest/v1/neo/2423321?api_key=t0TVs3DtDT2H8Oy2Zy8m2eVrNsAVKAexjcZXUckd"
      },
      "neo_reference_id" : "2423321",
      "name" : "423321 (2005 ED318)",
      "nasa_jpl_url" : "http://ssd.jpl.nasa.gov/sbdb.cgi?sstr=2423321",
      "absolute_magnitude_h" : 20.8,
      "estimated_diameter" : {
        "kilometers" : {
          "estimated_diameter_min" : 0.1838886721,
          "estimated_diameter_max" : 0.411187571
        },
        "meters" : {
          "estimated_diameter_min" : 183.8886720703,
          "estimated_diameter_max" : 411.1875710413
        },
        "miles" : {
          "estimated_diameter_min" : 0.1142630881,
          "estimated_diameter_max" : 0.2555000322
        },
        "feet" : {
          "estimated_diameter_min" : 603.309310875,
          "estimated_diameter_max" : 1349.040630575
        }
      },
      "is_potentially_hazardous_asteroid" : true,
      "close_approach_data" : [ {
        "close_approach_date" : "2000-04-15",
        "epoch_date_close_approach" : 955782000000,
        "relative_velocity" : {
          "kilometers_per_second" : "12.4013832077",
          "kilometers_per_hour" : "44644.9795477387",
          "miles_per_hour" : "27740.6540973158"
        },
        "miss_distance" : {
          "astronomical" : "0.196784419",
          "lunar" : "76.5491409302",
          "kilometers" : "29438530",
          "miles" : "18292254"
        },
        "orbiting_body" : "Earth"
      } ],
      "orbital_data" : {
        "orbit_id" : "67",
        "orbit_determination_date" : "2017-04-06 09:21:05",
        "orbit_uncertainty" : "0",
        "minimum_orbit_intersection" : ".00933635",
        "jupiter_tisserand_invariant" : "3.877",
        "epoch_osculation" : "2458000.5",
        "eccentricity" : ".4495699910846291",
        "semi_major_axis" : "1.849888247304118",
        "inclination" : "2.389730685198666",
        "ascending_node_longitude" : "82.06785020752748",
        "orbital_period" : "919.0024448092834",
        "perihelion_distance" : "1.018234004456045",
        "perihelion_argument" : "164.1790487610125",
        "aphelion_distance" : "2.68154249015219",
        "perihelion_time" : "2458108.625170981775",
        "mean_anomaly" : "317.6442241549022",
        "mean_motion" : ".3917290993439188",
        "equinox" : "J2000"
      }
    }, {
      "links" : {
        "self" : "https://api.nasa.gov/neo/rest/v1/neo/3036336?api_key=t0TVs3DtDT2H8Oy2Zy8m2eVrNsAVKAexjcZXUckd"
      },
      "neo_reference_id" : "3036336",
      "name" : "(2000 GV127)",
      "nasa_jpl_url" : "http://ssd.jpl.nasa.gov/sbdb.cgi?sstr=3036336",
      "absolute_magnitude_h" : 19.2,
      "estimated_diameter" : {
        "kilometers" : {
          "estimated_diameter_min" : 0.3841978911,
          "estimated_diameter_max" : 0.8590926012
        },
        "meters" : {
          "estimated_diameter_min" : 384.1978910643,
          "estimated_diameter_max" : 859.0926012318
        },
        "miles" : {
          "estimated_diameter_min" : 0.2387294278,
          "estimated_diameter_max" : 0.5338152287
        },
        "feet" : {
          "estimated_diameter_min" : 1260.4918089193,
          "estimated_diameter_max" : 2818.5453698252
        }
      },
      "is_potentially_hazardous_asteroid" : false,
      "close_approach_data" : [ {
        "close_approach_date" : "2000-04-15",
        "epoch_date_close_approach" : 955782000000,
        "relative_velocity" : {
          "kilometers_per_second" : "12.6674790251",
          "kilometers_per_hour" : "45602.9244903524",
          "miles_per_hour" : "28335.8838312415"
        },
        "miss_distance" : {
          "astronomical" : "0.1074253574",
          "lunar" : "41.7884635925",
          "kilometers" : "16070604",
          "miles" : "9985811"
        },
        "orbiting_body" : "Earth"
      } ],
      "orbital_data" : {
        "orbit_id" : "11",
        "orbit_determination_date" : "2017-04-06 09:17:03",
        "orbit_uncertainty" : "5",
        "minimum_orbit_intersection" : ".0957635",
        "jupiter_tisserand_invariant" : "2.939",
        "epoch_osculation" : "2458000.5",
        "eccentricity" : ".6150147294658461",
        "semi_major_axis" : "2.845282157232265",
        "inclination" : "17.87023564725901",
        "ascending_node_longitude" : "197.1313603176033",
        "orbital_period" : "1753.018250416131",
        "perihelion_distance" : "1.095391721048064",
        "perihelion_argument" : "2.565743486089644",
        "aphelion_distance" : "4.595172593416465",
        "perihelion_time" : "2458611.472377287302",
        "mean_anomaly" : "234.530652620863",
        "mean_motion" : ".2053600981704231",
        "equinox" : "J2000"
      }
    }, {
      "links" : {
        "self" : "https://api.nasa.gov/neo/rest/v1/neo/3471976?api_key=t0TVs3DtDT2H8Oy2Zy8m2eVrNsAVKAexjcZXUckd"
      },
      "neo_reference_id" : "3471976",
      "name" : "(2009 TD17)",
      "nasa_jpl_url" : "http://ssd.jpl.nasa.gov/sbdb.cgi?sstr=3471976",
      "absolute_magnitude_h" : 27.7,
      "estimated_diameter" : {
        "kilometers" : {
          "estimated_diameter_min" : 0.0076657557,
          "estimated_diameter_max" : 0.0171411509
        },
        "meters" : {
          "estimated_diameter_min" : 7.6657557353,
          "estimated_diameter_max" : 17.1411509231
        },
        "miles" : {
          "estimated_diameter_min" : 0.0047632783,
          "estimated_diameter_max" : 0.0106510141
        },
        "feet" : {
          "estimated_diameter_min" : 25.1501180466,
          "estimated_diameter_max" : 56.2373735944
        }
      },
      "is_potentially_hazardous_asteroid" : false,
      "close_approach_data" : [ {
        "close_approach_date" : "2000-04-15",
        "epoch_date_close_approach" : 955782000000,
        "relative_velocity" : {
          "kilometers_per_second" : "10.6986739106",
          "kilometers_per_hour" : "38515.2260780952",
          "miles_per_hour" : "23931.8636705809"
        },
        "miss_distance" : {
          "astronomical" : "0.139834234",
          "lunar" : "54.3955192566",
          "kilometers" : "20918904",
          "miles" : "12998405"
        },
        "orbiting_body" : "Earth"
      } ],
      "orbital_data" : {
        "orbit_id" : "6",
        "orbit_determination_date" : "2017-04-06 08:59:36",
        "orbit_uncertainty" : "7",
        "minimum_orbit_intersection" : ".000237267",
        "jupiter_tisserand_invariant" : "5.526",
        "epoch_osculation" : "2458000.5",
        "eccentricity" : ".2200000019715874",
        "semi_major_axis" : "1.126798091359249",
        "inclination" : ".07846879720065604",
        "ascending_node_longitude" : "217.9966609025289",
        "orbital_period" : "436.8854496469854",
        "perihelion_distance" : ".8789025090386334",
        "perihelion_argument" : "83.1436168892526",
        "aphelion_distance" : "1.374693673679865",
        "perihelion_time" : "2458110.531389314449",
        "mean_anomaly" : "269.3325259854533",
        "mean_motion" : ".8240146250942648",
        "equinox" : "J2000"
      }
    } ]
  }
}